adm1,name,address,phone,specialized,lat,lng,types
Aswan,ادفو العام,ش. مجلس المدينة,4710414,FALSE,24.9804467,32.8813854,General
Aswan,السباعية المركزى,السباعية غرب,3413106,FALSE,25.1976735,32.6744623,General
Aswan,دراو المركزى,طريق مصر اسوان السريع الزراعى,4730348,FALSE,24.410928,32.9294155,General
Aswan,كوم امبو المركزى,حى السبعين - ش. بور سعيد,3510643,FALSE,24.3993765,32.9224033,General
Aswan,نصر المركزى,نصر النوبة,2850003,FALSE,24.5388325,33.034381,General
Assiut,ابنوب المركزى,ش. بور سعيد,2500555,FALSE,27.2646723,31.155746,General
Assiut,ابو تيج المركزى,ش. الجلاء بجوار المحكمه,2483577,FALSE,27.0533778,31.315438,General
Assiut,اسيوط العام,ش. 23 يوليو - ميدان المجذوب,2333158,FALSE,27.1774313,31.1834807,General
Assiut,الايمان العام,مدينة مبارك - حى الاربعين - ش. 26 يوليو,2371903,FALSE,27.167781,31.1779023,General
Assiut,البدارى المركزى,ش. الدواوين,2600555,FALSE,26.9894768,31.4118666,General
Assiut,الغنايم المركزى,ش. الجمهورية - الغنايم بحرى,2651777,FALSE,26.8853589,31.3202833999999,General
Assiut,القوصية المركزى,ش. الرى,4750777,FALSE,27.4429446,30.8217386,General
Assiut,ديروط العام,ش. بور سعيد,4770444,FALSE,27.5516608,30.8153882,General
Assiut,ساحل سليم المركزى,ش. 23 يوليو,2631888,FALSE,27.0642489,31.3504608,General
Assiut,صدفا المركزى,ش. الجيش,2670777,FALSE,26.9650373,31.3833958,General
Assiut,منفلوط المركزى,ش. جمال عبد الناصر,4709805,FALSE,27.3107354,30.9673101,General
Luxor,ارمنت المركزى,ش. المستشفى - وابورات ارمنت,095/2625649,FALSE,25.6115773,32.5043714,General
Luxor,اسنا المركزى,ش. احمد عرابى,095/2517339,FALSE,25.3024221,32.5539279,General
Luxor,الاقصر العام,ش. كورنيش النيل,2372809/ 095,FALSE,25.708371,32.645069,General
Luxor,البياضية المركزى,البياضية - ش. المصالح الحكومية,095/2300039,FALSE,25.6644376,32.6313605,General
Luxor,القرنة المركزى,الاقصر - البر الغربى ( القرنة ) ش. الاوبرا,095/2314933,FALSE,25.7311001,32.6327483,General
Ismailia,الاسماعيلية العام,الاسماعيلية الطريق الدائرى,064/3213914,FALSE,30.6209714,32.2875094,General
Ismailia,التل الكبير المركزى,التل الكبير,064/3961636,FALSE,30.5599956,31.7848981,General
Ismailia,القصاصين المركزى,القصاصين الجديدة - امام المجمع الطبى,064/3440021,FALSE,30.5601528,31.9392227,General
Ismailia,القنطرة شرق المركزى,القنطرة شرق الجديدة,064/3750424,FALSE,30.8916011,32.3688007,General
Ismailia,القنطرة غرب المركزى,ش. مجلس المدينة,064/3561029,FALSE,30.8471856999999,32.3139238,General
Ismailia,فايد المركزى,ش. مجلس المدينة,064/3561498,FALSE,30.3238532,32.298931,General
Alexandria,ابوقير المركزى,ش. البحر الميت - ابوقير البلد,03/5621542,FALSE,31.3137549,30.0676864,General
Alexandria,الجمهورية العام,ش. قنال المحمودية - كوبرى راغب - كرموز,03/3624238,FALSE,31.1819112,29.9047498,General
Alexandria,العامرية العام,ش مسجد الحاج شرقاوى - بجوار قسم العامرية,03/4480216,FALSE,31.0116147,29.8047146,General
Alexandria,العجمى المركزى,العجمى - طريق العامرية ام زغيو - البوابة 8,03/3022520,FALSE,NA,NA,General
Alexandria,برج العرب المركزى,مدينة برج العرب بجوار قسم الشرطة,03/4595036,FALSE,30.883657,29.5736664,General
Alexandria,راس التين العام,ش. قصر راس التين بجوار قصر ثقافة الإنفوشى,03/4816025,FALSE,31.2100875,29.8780852,General
Red Sea,الشلاتين,الشلاتين,065/3305474,FALSE,23.1396786,35.6061071,General
Red Sea,الغردقة العام,الدهار - بجوار قرية شدوان السياحية,065/3546740,FALSE,27.2600373,33.8182247,General
Red Sea,القصير المركزى,القصير,065/3330070,FALSE,26.1040321,34.2793502,General
Red Sea,راس غارب المركزى,ش. الحرية بجوار السنترال,065/3620535,FALSE,28.3624271,33.0819316,General
Red Sea,سفاجا المركزى,ش. الجمهوريه امام عمارات الاوقاف,065/3251549,FALSE,26.755756,33.941059,General
Behera,ابو المطامير المركزى,ش. المركز,045/2400081,FALSE,30.915995,30.1763501,General
Behera,ابو حمص المركزى,ابو حمص بجوار الكوبرى العلوى,045/2560044,FALSE,31.1050825,30.3144693,General
Behera,ادفينا المركزى,خط الغابشة,045/2960356,FALSE,31.292988,30.5151994,General
Behera,ادكو المركزى,ش. السيد عبد الجليل,045/2915037,FALSE,31.3027001,30.310936,General
Behera,التحرير المركزى,ش. المدارس,045/3620335,FALSE,NA,NA,General
Behera,الدلنجات المركزى,طريق الدلنجات,045/3600318,FALSE,30.8338793,30.5302495,General
Behera,الرحمانية المركزى,بجوار حديقة الامراء,045/2850810,FALSE,31.106784,30.635992,General
Behera,المحمودية المركزى,ش. ترعة الرشيدية,045/2500428,FALSE,31.1837315,30.5194514,General
Behera,ايتاى البارود المركزى,ش. الجمهورية,045/3430321,FALSE,30.8869579,30.6697341,General
Behera,حوش عيسى المركزى,ش. الجمهوريه,045/2700379,FALSE,30.916575,30.298115,General
Behera,رشيد المركزى,ش. كورنيش النيل,045/2929829,FALSE,31.4094333,30.4233398,General
Behera,شبراخيت المركزى,ش. محمود ابو شلوع,045/3800011,FALSE,31.0276242,30.7042215,General
Behera,غرب النوبارية المركزى,غرب النوبارية,045/2632848,FALSE,30.672744,30.073989,General
Behera,كفر الدوار العام,مدخل الكوبرى العلوى بجوار الشاملة,045/2212486,FALSE,31.1391586,30.1216234,General
Behera,كفر الدوار المركزى,ش. احمد عرابى,045/2212186,FALSE,31.1372681,30.1251072,General
Behera,كوم حمادة المركزى,ش. الثورة,045/3680007,FALSE,30.7659001,30.6867403,General
Behera,وادى النطرون المركزى,وادى النطرون - طريق مصر اسكندريه الصحراوى,045/3554401,FALSE,30.3948509,30.3709849999999,General
Giza,6 اكتوبر المركزى,مدينة 6 اكتوبر - الحى السادس,38322180,FALSE,29.9493524,30.9126848,General
Giza,ابو النمرس المركزى,ابو النمرس - ش. المركز,38091330,FALSE,29.9542567,31.2141456,General
Giza,اطفيح المركزى,اطفيح,38412301,FALSE,29.4025627,31.2472147,General
Giza,البدرشين المركزى,طريق مصر اسيوط - البدرشين,38020523,FALSE,29.8532989,31.278492,General
Giza,التحرير العام,امبابه - ش. نصوح,37110046,FALSE,30.0811776,31.2225062,General
Giza,الحوامدية العام,طريق مصر اسيوط - الحوامدية,38114164,FALSE,29.887511,31.2727559999999,General
Giza,الشيخ زايد,مدينة الشيخ زايد - الحى الاول المجاورة الاولى,38502523,FALSE,30.0320571,31.0031313,General
Giza,الصف المركزى,الصف,38620444,FALSE,29.5834036,31.2847012,General
Giza,العياط المركزى,ش. الجيش - طريق مصر اسيوط,38606443,FALSE,29.6264719,31.2586141,General
Giza,الواحات البحرية المركزى,الباويطى,38472390,FALSE,28.3475945,28.8701362,General
Giza,ام المصريين العام,ش. ربيع الجيزى,35720622,FALSE,30.0056062,31.2096369,General
Giza,امبابة العام,ميدان بن خلدون - الكيت كات - امبابة,33040116,FALSE,30.065937,31.2077379,General
Giza,اوسيم المركزى,اوسيم,38700550,FALSE,30.122015,31.140832,General
Giza,بولاق الدكرور العام,ش. ترعة الزمر - بولاق الدكرور,33072002,FALSE,29.9932886999999,31.2048251,General
Dakahlia,اتميدة المركزى,اتميدة,050/6800304,FALSE,30.767057,31.3463786,General
Dakahlia,اجا المركزى,ش. بورسعيد,050-6456965,FALSE,30.9357852,31.2899948,General
Dakahlia,الجمالية المركزى,طريق صان الحجر (حى الزمالك),050-7731379,FALSE,31.1651466,31.8644922,General
Dakahlia,السنبلاوين المركزى,ارض الجمال,050-6691601,FALSE,30.8903928,31.4600797,General
Dakahlia,المطرية المركزى,ش. تانيس,050-7750343,FALSE,31.1818601,32.0335847,General
Dakahlia,المقاطعة المركزى,المقاطعة,050/6780485,FALSE,30.894519,31.550502,General
Dakahlia,المنزلة المركزى,المنزلة,050-7702903,FALSE,31.1629324,31.9460089,General
Dakahlia,المنصورة العام الجديد,ش المستشفى الجديد - خلف الاستاد الرياضى,050-2215760,FALSE,31.0320306,31.390968,General
Dakahlia,المنصورة العام القديم,ش. الجمهورية من ش. على باشا ابراهيم,050-2249222,FALSE,31.0441204,31.3663155,General
Dakahlia,بلقاس المركزى,بلقاس,050/2784321,FALSE,31.2184507,31.348981,General
Dakahlia,بنى عبيد المركزى,بنى عبيد,050/2640707,FALSE,31.0259307,31.6437203,General
Dakahlia,تمى الامديد المركزى,تمى الامديد - ابو الصير,050/6850767,FALSE,30.9226917,31.5377033,General
Dakahlia,جمصة المركزى,ش. الفتح القديمة,050/2740521,FALSE,31.4351822,31.5428918,General
Dakahlia,دكرنس العام,دكرنس,050-7481130,FALSE,31.0872426,31.6016763,General
Dakahlia,دماص المركزى,دماص,050/6880146,FALSE,30.8093298,31.3210688,General
Dakahlia,شبرا سندى المركزى,شبرا سندى,050/6760802,FALSE,30.8720847,31.5407449,General
Dakahlia,شبراهور المركزى,كفر شبراهور - السنبلوين,050/6710780,FALSE,30.9151074,31.3913512,General
Dakahlia,شربين المركزى,شربين,050/7925935,FALSE,31.1962675,31.5203547,General
Dakahlia,طلخا المركزى,ش. البحر,050/2523131,FALSE,31.0500839,31.3721204,General
Dakahlia,منية النصر المركزى,ش. كلية التربية النوعية,050/7498419,FALSE,31.1208334,31.6457883,General
Suez,السويس العام,ش. صلاح الدين الايوبى - حى السويس,3331194,FALSE,29.9681278,32.5475268,General
Sharkia,ابو حماد المركزى,ش. التحرير مركز أبوم حماد,055/3407055,FALSE,30.5407378,31.6776931,General
Sharkia,ابو كبير المركزى,ش. مصطفى كامل,055/3510137,FALSE,30.7197761,31.6592395,General
Sharkia,الابراهيمية المركزى,ش. الجمهورية,055/2590595,FALSE,30.7236227,31.554163,General
Sharkia,الحسينية المركزى,ش. المستشفى,055/2776420,FALSE,30.863928,31.9126975,General
Sharkia,الزقازيق العام الجديد,ش الأحرار - طريق الزقازيق,055/2362739,FALSE,NA,NA,General
Sharkia,الزقازيق العام القديم,ش. الحكماء بجوار سجن الزقازيق,055/2305036,FALSE,30.5931145,31.5093758,General
Sharkia,الزوامل المركزى,حى الزوامل,055/2820113,FALSE,30.3484053,31.4346018,General
Sharkia,السعديين المركزى,مينا القمح - السعديين,055/3700877,FALSE,30.4518735,31.3714155,General
Sharkia,الصالحية المركزى,الصالحية الجديدة,055/3201692,FALSE,30.6310022,31.9405721,General
Sharkia,الصوفية المركزى,اولاد صقر - الصوفية,055/3310303,FALSE,30.913441,31.769875,General
Sharkia,القرين المركزى,القرين ش. اللواء عبدالعزيز القمحاوى (القلعة),055/3440435,FALSE,30.6074675,31.7460251,General
Sharkia,القنايات المركزى,طريق الزقازيق المنصورة,055/2630310,FALSE,30.6134086,31.465732,General
Sharkia,اولاد صقر المركزى,الطريق السريع,055/3464636,FALSE,30.944387,31.717325,General
Sharkia,بلبيس المركزى,بلبيس - بجوار محطة الجديدة,055/2850001,FALSE,30.4309229,31.5599495,General
Sharkia,تلراك,تلراك,055/3320174,FALSE,30.891089,31.729352,General
Sharkia,ديرب نجم المركزى,ش. 23 يوليو,055/3760591,FALSE,30.7505355,31.450966,General
Sharkia,فاقوس العام,فاقوس,055/3172867,FALSE,30.730972,31.786826,General
Sharkia,كفر صقر المركزى,ش. التحرير,055/3186088,FALSE,30.7981877999999,31.6285772,General
Sharkia,مشتول السوق المركزى,ش. المدينة المنورة,055/2573323,FALSE,30.3613411,31.3851982,General
Sharkia,منيا القمح المركزى,ش. الحرية,055/3660049,FALSE,30.5212481,31.3521045,General
Gharbia,ابيار,ابيار,040/2580802,FALSE,30.8377933,30.8676573,General
Gharbia,السنطة المركزى,ش. المركز,040/5476645,FALSE,30.7323466,31.1261237,General
Gharbia,المحلة الكبرى العام,ش. 6 اكتوبر ابو شاهين,040/2223181,FALSE,30.9766799999999,31.1760396,General
Gharbia,المنشاوى العام,ش. تكية المنشاوى متفرع من ش. الجيش,040/3302036,FALSE,30.7893686,31.0013312,General
Gharbia,بسيون المركزى,ش. 23 يوليو,040/2730197,FALSE,30.9379744,30.8014027,General
Gharbia,زفتى العام,ش. الجيش,040/5703065,FALSE,30.7118575,31.2501383,General
Gharbia,سمنود المركزى,ش. السكة الحديد,040/2970010,FALSE,30.9654984,31.2434006,General
Gharbia,قطور المركزى,ش. المرور طريق طنطا كفر الشيخ,040/2760818,FALSE,31.0045019,30.8873909999999,General
Gharbia,كفر الزيات العام,ش. الجيش بجوار المطافى,040/2545751,FALSE,30.820231,30.819215,General
Gharbia,محلة مرحوم المركزى,محلة مرحوم,040/3603741,FALSE,30.8133888,30.9595799,General
Fayoum,ابشواى المركزى,ش. الجمهورية,6710474,FALSE,29.3707596,30.6883657,General
Fayoum,اطسا المركزى,ش. عمر بن الخطاب,6413427,FALSE,29.2370397,30.7986739,General
Fayoum,الفيوم العام,ش. النبوى المهندس - دار رماد,342803,FALSE,29.3166622,30.8494481,General
Fayoum,سنورس المركزى,بندر سنورس - ش. المدارس,6907568,FALSE,29.4087034,30.8587204,General
Fayoum,طامية المركزى,ش. المستشفى بجوار مركز الشرطة,6610715,FALSE,29.4773475,30.954355,General
Fayoum,فيدمين المركزى,فيدمين,6550535,FALSE,29.3837655,30.785123,General
Cairo,التبين,بجوار مدرسة الصلب الثانوية بنات - خلف المركز الطبى بالتبين - مساكن الصلب الجديدة,25028815,FALSE,29.7835007,31.3028822,General
Cairo,الخازندارة العام,3 ش. شيبان متفرع من ش. شبرا امام هندسة شبرا,22057593,FALSE,30.0830439,31.2461774,General
Cairo,الخليفة العام,22 ش. السويفى الحلمية الجديدة - القلعة,23904686,FALSE,30.0335389,31.2536181,General
Cairo,الزاوية الحمراء العام,ش. المستشفى بجوار المخبز الالى,24248004,FALSE,30.1016278,31.2663174,General
Cairo,الشروق المركزى,الحى الثانى بجوار بنك الاسكان والتعمير,26879119,FALSE,30.1553845,31.6180935999999,General
Cairo,القاهرة الجديدة المركزى,التجمع الثالث بجوار الالمانية,27594306,FALSE,29.9789913999999,31.4367506,General
Cairo,المنيرة العام,2 ش. نوبار  - السيدة زينب,27947411,FALSE,30.0349052,31.2383557,General
Cairo,بدر المركزى,الحى الثالث مجاورة 1,28646681,FALSE,NA,NA,General
Cairo,بولاق ابوالعلا العام,5 ش. المطبعة الاهلية,25755211,FALSE,30.0630818,31.2285197,General
Cairo,دار السلام العام,987 كورنيش النيل - مصر القديمة,23637769,FALSE,30.0126685,31.2283386,General
Cairo,روض الفرج,مجمع مبارك الحضارى - ارض سوق روض الفرج القديم,24608857,FALSE,30.0716171,31.2347182999999,General
Cairo,شبرا العام,76 ش. المستشفى من ش. الترعة البولاقية,22352325,FALSE,30.0732158,31.2523966999999,General
Cairo,م . 15 مايو,نهاية مجاورة 3 امام حى رجال الاعمال,25503854,FALSE,29.8292791,31.3635364,General
Cairo,م . الشيخ زايد ال نهيان,طريق النصر - أباجية - قسم الخليفة,112400601,FALSE,30.0496897,31.2882983,General
Cairo,م . حلوان,3 ش. زكى,25564516,FALSE,29.8471568,31.3419845,General
Cairo,م . عين شمس,مساكن عين شمس بجوار محطة الكهرباء,22962572,FALSE,30.0766156,31.2902641,General
Cairo,منشية البكرى العام,منشية البكرى - 13 ش. جسر السويس,22582336,FALSE,30.0917868,31.3065072,General
Kalyoubia,ابو المنجا المركزى,أول طريق القناطر الخيرية - بجوار مصنع ياسين,44459396,FALSE,30.1303711,31.2305649,General
Kalyoubia,الخصوص المركزى,ش. النادى بجوار الوحدة المحلية الخصوص,44694016,FALSE,30.15763,31.3124608,General
Kalyoubia,القناطر الخيرية المركزى,التقسيم السياحى - ش. النادى,42188148,FALSE,30.1911345,31.1412138,General
Kalyoubia,شبين القناطر المركزى,شبين القناطر,2720011,FALSE,30.3183124,31.3093024,General
Kalyoubia,طوخ المركزى,ش. الشهيد احمد عبد العزيز,2460131,FALSE,30.3638406,31.1962581,General
Kalyoubia,قليوب المركزى,ش. العاشر من رمضان,42157673,FALSE,30.1801448,31.2218678,General
Kalyoubia,قها المركزى,ش. مجلس المدينة,132601049,FALSE,30.2862985,31.2071656,General
Kalyoubia,كفر شكر المركزى,كفر شكر,013/2526740,FALSE,30.55314,31.2526703,General
Kalyoubia,مستشفى حى شرق (بهتيم) المركزى,135 ش. بهتيم العمومى - خلف محطة الكهرباء,48241726,FALSE,30.1379913999999,31.2719202,General
Kalyoubia,ناصر العام,ارض نوبار خلف مصانع كريستال عصفور,42201744,FALSE,30.124435,31.258292,General
Menoufia,اشمون المركزى,ش. بورسعيد,048/3442029,FALSE,30.2956975,30.9892049,General
Menoufia,الباجور المركزى,طريق الباجور منوف بجوار محطة المياه,048/3889075,FALSE,30.432699,31.029017,General
Menoufia,السادات المركزى,المنطقة الاولى - ش. الحسن بن على,048/2600047,FALSE,30.3670769,30.5059107,General
Menoufia,الشهداء المركزى,ش. بور سعيد,048/2750383,FALSE,30.5977250999999,30.9052277,General
Menoufia,بركة السبع العام,طريق هورين - البر الشرقى,048/2994200,FALSE,30.6355611,31.0902881,General
Menoufia,تلا المركزى,ش. السادات امام مجلس المدينة,048/3790404,FALSE,30.6844858,30.9502834,General
Menoufia,زاوية الناعورة المركزى,زاوية الناعورة,048/2772314,FALSE,30.546114,30.8615579,General
Menoufia,سرس الليان المركزى,ش. بور سعيد,048/3531431,FALSE,30.4424808,30.9609492,General
Menoufia,قويسنا المركزى,الطريق السريع,048/2573686,FALSE,30.5526142,31.1389988,General
Menoufia,منوف العام,ش. الجيش,048/3660012,FALSE,30.4720714,30.9273746,General
Menia,العدوة المركزى,ش. بور سعيد,086/7961624,FALSE,28.6950816,30.7745343,General
Menia,الفكرية المركزى,ابو قرقاص - ش. بورسعيد,086/2429850,FALSE,27.9352659,30.822401,General
Menia,المنيا العام,ش. بن خصيب بجوار الشبان المسلمين,086/2364099,FALSE,28.100991,30.754063,General
Menia,بنى مزار المركزى,ش. الابراهيمية,086/7882081,FALSE,28.505166,30.8009005,General
Menia,دير مواس المركزى,ش. 26 يوليو,086/2010503,FALSE,27.6442751,30.8576431,General
Menia,سمالوط المركزى,الطريق الزراعى,086/7713931,FALSE,28.2960914,30.7102247,General
Menia,مطاى المركزى,امتداد ش. الابراهيمية بجوار مجلس المدينة,086/7920503,FALSE,28.4215752,30.7905092,General
Menia,مغاغة المركزى,ش. المدارس,086/7550035,FALSE,28.6553588,30.8319363,General
Menia,ملوى العام,الترعة الديروطية نهاية ش. 26 يوليو,086/2632266,FALSE,27.729539,30.831981,General
New Valley,الخارجة العام,ش. النبوى المهندس,7920777,FALSE,25.4431002,30.549497,General
New Valley,الداخلة المركزى,موط,7821555,FALSE,25.4955024,28.9878023,General
New Valley,الفرافرة المركزى,الفرافرة,7510047,FALSE,27.0678439,27.9733425,General
New Valley,باريس المركزى,باريس,7975006,FALSE,NA,NA,General
New Valley,بلاط,بلاط,-,FALSE,NA,NA,General
Beni Suef,الفشن المركزى,الفشن,7660346,FALSE,28.8320544,30.9004724,General
Beni Suef,الواسطى المركزى,ش. سعد زغلول,2510310,FALSE,29.3507958,31.2030548,General
Beni Suef,اهناسيا المركزى,اهناسيا,5720430,FALSE,29.0883939999999,30.9435749,General
Beni Suef,ببا المركزى,ش. المستشفى,4400333,FALSE,28.92645,30.972844,General
Beni Suef,بنى سويف العام,كورنيش النيل,323243,FALSE,29.0640531,31.1028314,General
Beni Suef,سمسطا المركزى,سمسطا,7600309,FALSE,28.9131464,30.8523881,General
Beni Suef,ناصر المركزى,ناصر,5821401,FALSE,29.1449997,31.132912,General
Port Said,الزهور المركزى,حى الزهور - منطقه عمر بن عبدالعزيز,066/3631152,FALSE,31.2625901,32.2585899,General
Port Said,النصر المركزى,ش. عبد الهادى الحديدى - طريق النصر,066/3224797,FALSE,31.2677762,32.2775531,General
Port Said,بور سعيد العام,ش. صفية زغلول - طريق النصر,066/3220695,FALSE,31.2637118,32.3049254,General
Port Said,بورفؤاد المركزى,منطقة العبور  - تعاونيات بورفؤاد,066/3400849,FALSE,31.2443266,32.3187401,General
South Sinai,ابو رديس,ابو رديس,3394014,FALSE,28.9102881,33.1926155,General
South Sinai,الطور العام,طور سيناء,3770320,FALSE,28.2471992,33.6226494,General
South Sinai,دهب المركزى,دهب,3640208,FALSE,28.4843224,34.494584,General
South Sinai,راس سدر,راس سدر,3400214,FALSE,29.5899281,32.7103379,General
South Sinai,سانت كاترين,سانت كاترين,3470386,FALSE,28.5665927,33.9528618,General
South Sinai,طابا,طابا,3530231,FALSE,29.493174,34.897201,General
South Sinai,نويبع المركزى,نويبع,3500302,FALSE,29.0342447,34.6593396,General
Damietta,الروضة المركزى,الروضة - بجوار الوحدة المحلية,057-3470418,FALSE,31.325262,31.758889,General
Damietta,الزرقا المركزى,ش. النور,057-3858567,FALSE,31.2083327,31.6371274,General
Damietta,السرو المركزى,السرو - ش. المستشفى,057-3886099,FALSE,NA,NA,General
Damietta,دمياط العام,ش. سعد زغلول امام المحافظة,057-2224340,FALSE,31.4143242,31.8054767,General
Damietta,راس البر المركزى,راس البر - ش. 2 من ش. المديرية عشة 2,057-2530327,FALSE,31.5159309,31.8356207,General
Damietta,عزبة البرج المركزى,عزبة البرج - ش. الفنار,057-2700309,FALSE,31.5072333,31.8365121,General
Damietta,فارسكور المركزى,طريق 5 الحديث,057-3440315,FALSE,31.3350768,31.7189225,General
Damietta,كفر البطيخ المركزى,كفر البطيخ - امام مجلس المدينة,057-6660705,FALSE,31.404299,31.7382815,General
Damietta,كفر سعد المركزى,كفر سعد,057-3602633,FALSE,31.359735,31.690273,General
Damietta,م . دمياط التخصصى,دمياط كورنيش النيل الأعصر الشارع الحربي,057/57332442,FALSE,31.4370815,31.8013314,General
Damietta,ميت ابو غالب المركزى,ميت ابو غالب,057-3733818,FALSE,31.29128,31.677571,General
Suhag,اخميم المركزى,طريق ناصر الزراعى (اخميم - سوهاج ),093/2589263,FALSE,26.562332,31.729969,General
Suhag,البلينا المركزى,ش. الجمهورية بجوار محطة القطار,093/4800301,FALSE,26.2340422,31.996817,General
Suhag,المراغة المركزى,ش. المستشفى,093/2530763,FALSE,26.7008715,31.6009978,General
Suhag,المنشاة المركزى,ش. عبد المنعم رياض,093/2400333,FALSE,26.479816,31.797351,General
Suhag,اولاد حمزه المركزى,اولاد حمزه - العسيرات,093/4935340,FALSE,26.393609,31.822806,General
Suhag,جرجا العام,ش. عبدالمجيد مصطفى,093/4676034,FALSE,26.3462727,31.8878818,General
Suhag,جزيرة شندويل,جزيرة شندويل,093/2470023,FALSE,26.6232462,31.6402146999999,General
Suhag,جهينة المركزى,ش. الشهداء - جهينة الغربية,093/4707793,FALSE,26.669027,31.503022,General
Suhag,دار السلام المركزى,دار السلام,093/4850333,FALSE,26.279001,32.058357,General
Suhag,ساقلته المركزى,ش. التحرير,093/2510333,FALSE,26.658361,31.666374,General
Suhag,سوهاج العام,ش. محمود فهمى النقراشى - ميدان العارف,093/2332007,FALSE,26.5463253,31.7007746,General
Suhag,طما المركزى,ش. احمد عرابى,093/2790713,FALSE,26.8968915,31.4420548,General
Suhag,طهطا العام,ش. احمد نمير,096/5334394,FALSE,26.7739223,31.4973541,General
North Sinai,الشيخ زويد المركزى,حى الكوثر,068/3500323,FALSE,31.2227108,34.1236424,General
North Sinai,العريش العام,ش. الجيش من ش. 23 يوليو,068/3352938,FALSE,31.1356206,33.8097898,General
North Sinai,بئر العبد المركزى,الشارع العام,068/3540005,FALSE,31.010663,32.994722,General
North Sinai,رفح المركزى,حى الصفا - ش. قطاع الامن المركزى,068/3300459,FALSE,31.2570185,34.2277658,General
North Sinai,نخل المركزى,نخل,068/3600343,FALSE,29.9099331999999,33.7450699,General
Qena,ابو تشت المركزى,ش. المستشفى,096/6710605,FALSE,26.1257877,32.101405,General
Qena,الوقف المركزى,السنابسه,096/5440019,FALSE,26.0927766,32.425257,General
Qena,دشنا المركزى,ش. طراد النيل - الصعايدة,096/6740502,FALSE,26.1240085,32.4735163,General
Qena,فرشوط المركزى,ش. بور سعيد,096/6510527,FALSE,26.0599199,32.1578727,General
Qena,قفط المركزى,ش. الجيش,096/6910671,FALSE,25.9959674,32.8102957,General
Qena,قنا العام,ش المدارس قنا,096/5337101,FALSE,26.1596439,32.7073087,General
Qena,قوص المركزى,ش. النيل,096/6840522,FALSE,25.9217588,32.7515262,General
Qena,نجع حمادى العام,ش. التحرير,096/6580191,FALSE,26.0580021,32.2289622,General
Qena,نقادة المركزى,ش. طراد النيل,096/6600440,FALSE,25.908751,32.726372,General
Kafr El-Shikh,الحامول المركزى,ش. عمر بن الخطاب,047/3800441,FALSE,31.3110097,31.1489493,General
Kafr El-Shikh,الرياض المركزى,الرياض - طريق الحامول,047/3860747,FALSE,31.2552851,30.9668219,General
Kafr El-Shikh,بلطيم المركزى,طريق المصيف,047/2510860,FALSE,31.557625,31.0815239,General
Kafr El-Shikh,بيلا المركزى,ش. الثورة,047/3605131,FALSE,31.1776606999999,31.2273663,General
Kafr El-Shikh,دسوق العام,ش. المستشفى,047/2563050,FALSE,31.1377548,30.6441173,General
Kafr El-Shikh,سيدى سالم المركزى,ش. الكورنيش,047/2700513,FALSE,31.2680834,30.7845283,General
Kafr El-Shikh,فوه المركزى الجديد,ش. الفتح بجوار مدرسه التجاره,047/2976777,FALSE,31.204634,30.545978,General
Kafr El-Shikh,قلين المركزى,ش. الجمهورية,047/3400488,FALSE,31.0493263,30.8490729,General
Kafr El-Shikh,كفر الشيخ العام,ش. الدستور - بندر كفر الشيخ,047/3232407,FALSE,31.1165211,30.9426713,General
Kafr El-Shikh,مطوبس المركزى,ش. داير الناحية,047/2710821,FALSE,31.2926982,30.5249602,General
Matrouh,الحمام المركزى,ش الاسكندرية مدينة الحمام,046/4750844,FALSE,30.8518032,29.3848929,General
Matrouh,السلوم المركزى,ش. السلوم الرئيسى,046/4800020,FALSE,31.560929,25.159453,General
Matrouh,الضبعة المركزى,الضبعة,046/4670019,FALSE,31.030592,28.445541,General
Matrouh,العلمين المركزى,امام مجلس المدينة,046/4100212,FALSE,30.8428046,28.9402713,General
Matrouh,النجيلة,النجيلة,046/4540130,FALSE,31.407504,26.5782827,General
Matrouh,رأس الحكمة للإغاثة والطوارىء,طريق اسكندرية -الطريق السريع قبل مرسى مطروح ب65 ك,046/4500006,FALSE,31.1125298,27.8231657,General
Matrouh,سيدى برانى المركزى,سيدى برانى,046/4400070,FALSE,31.610612,25.926092,General
Matrouh,سيوه المركزى,منطقة الرمل - ش. السادات,046/4602019,FALSE,29.1947239,25.5168424,General
Matrouh,مارينا المركزى,ش الشانزلزية الساحل الشمالي مطروح,046/4060005,FALSE,30.817671,29.030981,General
Matrouh,مطروح العام,ش. اسكندرية,046/4933355,FALSE,31.3492894,27.2413547,General
Aswan,السد العالى شرق,نفسية السد العالى وعلاج ادمان,097/3480652,TRUE,NA,NA,Specialised
Aswan,حميات ادفو,ش. مجلس المدينة,097/4707817,TRUE,24.9620313,32.868836,Specialised
Aswan,حميات اسوان,المدينة الصناعية بجوار المسلة الناقصة,097/2302523,TRUE,24.0761296,32.8931353,Specialised
Aswan,رمد اسوان,ش. ابطال التحرير,2303025,TRUE,24.0925978,32.8969345,Specialised
Aswan,صدر ادفو,ش. كورنيش النيل,097/4711723,TRUE,NA,NA,Specialised
Aswan,صدر اسوان,ش. السماد امام كلية التربية,097/2252877,TRUE,NA,NA,Specialised
Assiut,اسيوط للصحة النفسية,ش. كوبرى الملك فيصل بجوار مديرية الشئون الصحية,088/9202136,TRUE,27.1858736,31.1677693,Specialised
Assiut,الصحة الانجابية,ش. المحطه,4710810,TRUE,NA,NA,Specialised
Assiut,حميات اسيوط,ش. جسر السلطان - حى السادات,088/2333317,TRUE,27.1747691,31.1882758,Specialised
Assiut,حميات الشامية,ساحل سليم - الشامية,088/2633888,TRUE,NA,NA,Specialised
Assiut,رمد اسيوط,ش. الجمهورية ميدان 6 اكتوبر بجوار مركز التدريب,2322100,TRUE,27.1938071,31.1864314,Specialised
Assiut,صدر اسيوط,ش. كوبرى الملك فيصل بجوار المديرية,2181552,TRUE,27.1946908,31.1766021999999,Specialised
Assiut,مستشفى النساء والولادة,ش. 26 يوليو,2375689,TRUE,NA,NA,Specialised
Luxor,حميات ارمنت,ارمنت الوابورات - المراعزة,095/2620346,TRUE,25.6091597,32.5142739,Specialised
Luxor,حميات الاقصر,قرية الحبيل,095/2324282,TRUE,25.6539443,32.6926675,Specialised
Luxor,رمد اسنا,ش. احمد العربى,095/2510310,TRUE,NA,NA,Specialised
Luxor,صدر اسنا,ش. البحر,095/2510441,TRUE,25.3135566,32.569018,Specialised
Ismailia,حميات الاسماعيلية,امام كوبرى الجلاء,064/3456463,TRUE,30.5810531,32.2560182,Specialised
Ismailia,حميات حلوان,حميات حلوان,25561530,TRUE,30.1790786,31.4508156,Specialised
Ismailia,صدر الاسماعيلية,الاسماعيلية,3327742,TRUE,30.5735698,32.2588598,Specialised
Alexandria,عباس حلمى لعلاج الادمان,طريق اسكندرية مطروح بين البيطاش والهانوفيل,03/3019340,TRUE,31.111646,29.7914337,Specialised
Alexandria,المعموره للصحة النفسية,ش. النبوى المهندس - المعموره,03/5338840,TRUE,31.2699252,30.0255489,Specialised
Alexandria,حميات محرم بك,الحضرة -امبروزو امام سجن الحضرة,4293143,TRUE,31.1953428,29.9233675,Specialised
Alexandria,دار اسماعيل,9 ش. شريف - مينا البصل,03/3612807,TRUE,31.1862402,29.8918494,Specialised
Alexandria,رمد الاسكندرية,ش. وابور المياه امام اكاديمية السادات - محرم بك,3931519,TRUE,31.1973435,29.9166019999999,Specialised
Alexandria,صدر المعمورة,ش. النبوى المهندس - المعمورة,03/5333701,TRUE,31.2671797,30.0269479999999,Specialised
Alexandria,صدر كوم الشقافة,كوم الشقافة - ش. خوفو امام ورش الترام,03/3623208,TRUE,31.1789994,29.8922403,Specialised
Alexandria,مستشفى صلاح العوضى,ش. د. رشاد سويدان - البيطاش,03/3091744,TRUE,31.1172797,29.7927342,Specialised
Red Sea,حميات الغردقة,ش. الحجاز طريق المطار,065/3549188,TRUE,27.2198267,33.8184496,Specialised
Behera,حميات دمنهور,ش. طريق النصر - مجمع المواقف,045/3349254,TRUE,31.0215544,30.4674843,Specialised
Behera,حميات كفر الدوار,المنشيه الجديده - ش. احمد عرابى بجوار مدرسه الصنايع,045/2212181,TRUE,NA,NA,Specialised
Behera,رمد دمنهور,ش. الجمهورية,045/3317959,TRUE,31.0454887,30.4674429,Specialised
Behera,صدر دمنهور,ش. الجمهورية امام كلية التربية,045/3317715,TRUE,31.0515293,30.4613119,Specialised
Behera,مركز فرنكوبازاليا للرعاية النفسية فى المجتمع,مركز الرعاية الصحية بقومبانية ابوقير الخط الوسطانى امام قسم شرطة عرابى,045/2290300,TRUE,NA,NA,Specialised
Giza,حميات امبابة,ش. كورنيش النيل,33112430,TRUE,30.083864,31.225769,Specialised
Giza,رمد الجيزة,530 ش. الاهرام قبل كوبرى عباس,35723148,TRUE,30.0153611999999,31.216557,Specialised
Giza,رمد امبابة,ش. الطيار فكرى زاهر,33118728,TRUE,30.0111019,31.2088447,Specialised
Giza,صدر الجيزة,ش. ترعة الزمر - العمرانية الغربية,35624758,TRUE,29.995458,31.202638,Specialised
Dakahlia,الدميره للصحة النفسية,دميره,050/2625026,TRUE,31.1408686,31.3804787,Specialised
Dakahlia,حميات المنصورة,ش. مستشفى الصدر,050/2245602,TRUE,31.0333744,31.3732542,Specialised
Dakahlia,رمد المنصورة,ش. جيهان بجوار مستشفى الطوارىء,050/2242273,TRUE,31.0441115,31.3649736,Specialised
Dakahlia,صدر المنصورة,ش. الخلفاء الراشدين,050/2242904,TRUE,31.0343458,31.3748579,Specialised
Dakahlia,صدر بهوت,بهوت,050/2784443,TRUE,31.2019456,31.3175496,Specialised
Suez,حميات السويس,ش. المستشفيات - خلف السويس العام,3331212,TRUE,29.9665787,32.5452848,Specialised
Suez,صدر السويس,حى الملاحة - ش. دار البلدية,062/3331196,TRUE,29.9645410999999,32.5459359,Specialised
Sharkia,العزازى للصحة النفسية,كفر العزازى,055/3440536,TRUE,30.5857484,31.7199319,Specialised
Sharkia,حميات الزقازيق,النحال - ش. الحميات,055/2283286,TRUE,30.5735346,31.5084102,Specialised
Sharkia,حميات فاقوس,ش. بور سعيد,055/3979805,TRUE,30.7309415,31.7881024,Specialised
Sharkia,رمد الزقازيق,ش. الجيش (يوسف بك)(طريق هرية الجديد),055/2303745,TRUE,30.5979929,31.5219237,Specialised
Sharkia,صدر الزقازيق,ش. الزراعه,055/2323258,TRUE,30.5723764,31.5095351,Specialised
Gharbia,حميات المحلة,طريق سكة طنطا,040/2421185,TRUE,30.9496215,31.1494403,Specialised
Gharbia,حميات طنطا,ش. البحر,040/3333878,TRUE,30.785167,30.9943429,Specialised
Gharbia,حميات كفر الزيات,طريق مصر الاسكندرية الزراعى,040/2542536,TRUE,30.8130357,30.8203539,Specialised
Gharbia,رمد المحلة,ش. محب,040/2232559,TRUE,30.9785335,31.1685472,Specialised
Gharbia,رمد طنطا,ش. الجيش,040/3353294,TRUE,30.793867,30.9980344,Specialised
Gharbia,صدر المحلة الكبرى,طريق سكة طنطا,040/2420068,TRUE,30.9525298,31.1506344,Specialised
Gharbia,صدر طنطا,ش. البحر,040/3334260,TRUE,30.8015364,30.9943088,Specialised
Gharbia,طنطا للصحة النفسية,ش. عبد الحى مشهور من ش. الجيش بجوار المستشفى الجامعى,040/3334930,TRUE,30.8028823,30.9939222,Specialised
Gharbia,مركز شبرا قاص علاج الادمان,شبرا قاص - امام الوحدة البيطرية,040/5305739,TRUE,NA,NA,Specialised
Fayoum,حميات الفيوم,حى السلخانة,332422,TRUE,29.3084021,30.8428497,Specialised
Fayoum,رمد الفيوم,ش. سعد زغلول - بندر الفيوم,337363,TRUE,29.3122113,30.846378,Specialised
Fayoum,صدر الفيوم,الفيوم - بجوار التامين الصحى,307364,TRUE,29.310379,30.859082,Specialised
Cairo,العباسية للصحة النفسية,طريق صلاح سالم بجوار ارض المعارض,22616255,TRUE,30.0683448,31.2982454,Specialised
Cairo,حلوان للصحة النفسية,بين العزبتين امتداد ش. منصور,25547387,TRUE,29.854856,31.3389757,Specialised
Cairo,حميات العباسية,امتداد ش. رمسيس بجوار المحطة الدولية,23424024,TRUE,30.0642943,31.2933918,Specialised
Cairo,رمد قلاوون,80 ش. المعز لدين الله الفاطمى - الحسين - الجمالية,25901681,TRUE,30.0492781,31.2602586,Specialised
Cairo,صدر العباسية,ش. السكة البيضاء متفرع من الاتوستراد,23425024,TRUE,30.0572989,31.2950299,Specialised
Cairo,مصر الجديدة للصحة النفسية,اخر طريق المطار بجوار فندق موفنبيك خلف محطة بنزين التعاون,24152631,TRUE,30.1218504,31.3953893,Specialised
Kalyoubia,الخانكة,الخانكة,4698437,TRUE,30.222636,31.361997,Specialised
,Health Bureau - 6th Of October,,,,29.9634118,30.9124589,Bureau
,Health Bureau - Abdin,,,,30.0440969,31.2433727,Bureau
,Health Bureau - Abnoub,,,,27.1935621,31.1860467,Bureau
,Health Bureau - Abou El Matamir,,,,30.9138417,30.1715738,Bureau
,Health Bureau - Abou El Nawatir,,,,31.2208479,29.9371728,Bureau
,Health Bureau - Abou El Seoud,,,,30.0145991,31.2367889,Bureau
,Health Bureau - Abou Hammad,,,,30.533528,31.675005,Bureau
,Health Bureau - Abou Hommos,,,,31.0997613,30.3118157,Bureau
,Health Bureau - Abou Kabir,,,,30.7292064,31.6702902,Bureau
,Health Bureau - Abou Qir,,,,31.313152,30.066753,Bureau
,Health Bureau - Abou Redis,,,,28.910042,33.190749,Bureau
,Health Bureau - Abou Sultan,,,,30.0395319,31.2522496,Bureau
,Health Bureau - Abou Sweir 1,,,,30.5636929,32.1144319,Bureau
,Health Bureau - Abou Sweir 2,,,,30.5636929,32.1144319,Bureau
,Health Bureau - Abou Sweir El Balad,,,,,,Bureau
,Health Bureau - Abou Tesht,,,,,,Bureau
,Health Bureau - Abou Tig,,,,27.0522942,31.3132989,Bureau
,Health Bureau - Abou Zenaima,,,,29.058102,33.102558,Bureau
,Health Bureau - Aboud,,,,30.8272034,30.5349336,Bureau
,Health Bureau - Abyar,,,,30.838762,30.867003,Bureau
,Health Bureau - Aga,,,,30.9417446,31.2934496,Bureau
,Health Bureau - Airport,,,,31.196431,29.950468,Bureau
,Health Bureau - Akhmeem,,,,26.5635889,31.748042,Bureau
,Health Bureau - Almaza,,,,30.0826059,31.3523539,Bureau
,Health Bureau - Amprozo,,,,31.1952987,29.921511,Bureau
,Health Bureau - Arab El Maamal,,,,,,Bureau
,Health Bureau - Arab El Tawaila,,,,30.1364362,31.3129559,Bureau
,Health Bureau - Araishyat Misr,,,,30.597076,32.270771,Bureau
,Health Bureau - Arment,,,,25.605832,32.509397,Bureau
,Health Bureau - Ashmoun,,,,30.2966347,30.9745557,Bureau
,Health Bureau - Asiout 1,,,,27.18939,31.1897451,Bureau
,Health Bureau - Asiout 2,,,,29.0760503,31.094774,Bureau
,Health Bureau - Asiout 3,,,,27.199363,31.183147,Bureau
,Health Bureau - Asiout 4,,,,27.1806561,31.1765495,Bureau
,Health Bureau - Asiout 5,,,,27.1806561,31.1765495,Bureau
,Health Bureau - Aswan 1,,,,24.084692,32.9001813,Bureau
,Health Bureau - Aswan 2,,,,24.103244,32.9051203,Bureau
,Health Bureau - Atfih,,,,29.402656,31.246592,Bureau
,Health Bureau - Atmida,,,,30.7670432,31.3463974,Bureau
,Health Bureau - Azhar,,,,30.040279,31.259538,Bureau
,Health Bureau - Bab El Bahr,,,,30.054014,31.255184,Bureau
,Health Bureau - Bab El Shaareya,,,,30.0629332,31.2464422,Bureau
,Health Bureau - Bahteem 2,,,,30.137584,31.272181,Bureau
,Health Bureau - Bahtim 1,,,,30.137584,31.272181,Bureau
,Health Bureau - Bakkous,,,,31.232554,29.974147,Bureau
,Health Bureau - Baltim,,,,31.5551476,31.0919471,Bureau
,Health Bureau - Bandar Banisuef 1,,,,29.0760503,31.094774,Bureau
,Health Bureau - Bandar Banisuef 2,,,,29.0760503,31.094774,Bureau
,Health Bureau - Bandar Banisuef 3,,,,29.0760503,31.094774,Bureau
,Health Bureau - Bandar Banisuef 4,,,,29.0760503,31.094774,Bureau
,Health Bureau - Bandar Damanhour 1,,,,31.049285,30.465034,Bureau
,Health Bureau - Bandar Damanhour 2,,,,31.049285,30.465034,Bureau
,Health Bureau - Bandar Damanhour 3,,,,31.0221152,30.4599005,Bureau
,Health Bureau - Bandar El Fayoum 1,,,,29.3042664,30.831072,Bureau
,Health Bureau - Bandar El Fayoum 2,,,,29.3171993,30.8320463,Bureau
,Health Bureau - Bandar El Fayoum 3,,,,29.3129615,30.8442557,Bureau
,Health Bureau - Bandar El Fayoum 4,,,,29.3042664,30.831072,Bureau
,Health Bureau - Bandar El Fayoum 5,,,,29.309467,30.8576077,Bureau
,Health Bureau - Bandar El Fayoum 6,,,,29.3042664,30.831072,Bureau
,Health Bureau - Banha 1,,,,30.4656288,31.1778199,Bureau
,Health Bureau - Banha 2,,,,30.459004,31.186763,Bureau
,Health Bureau - Banha 3,,,,30.4554276,31.1795291,Bureau
,Health Bureau - Banha 4,,,,30.4656288,31.1778199,Bureau
,Health Bureau - Banha 5,,,,30.4499888,31.1829368,Bureau
,Health Bureau - Bani Ebaid,,,,31.0552071,31.4115535,Bureau
,Health Bureau - Bani Mazar 1,,,,28.495214,30.8062273,Bureau
,Health Bureau - Bani Mazar 2,,,,28.491662,30.803199,Bureau
,Health Bureau - Basion 1,,,,30.9414516,30.808181,Bureau
,Health Bureau - Basion 2,,,,30.9414516,30.808181,Bureau
,Health Bureau - Basion 3,,,,30.9289193,30.8157991,Bureau
,Health Bureau - Batrah,,,,31.166318,31.450495,Bureau
,Health Bureau - Bear El Abd,,,,31.0107688,33.0071139,Bureau
,Health Bureau - Beba,,,,28.9219676,30.984424,Bureau
,Health Bureau - Beilla,,,,31.1761645,31.2272429,Bureau
,Health Bureau - Belbeis,,,,30.1209288,31.2889068,Bureau
,Health Bureau - Belqas,,,,31.2142573,31.3545629,Bureau
,Health Bureau - Boulaq 1,,,,30.057772,31.236061,Bureau
,Health Bureau - Boulaq 2,,,,30.0413,31.1931,Bureau
,Health Bureau - Boulaq El Dakrour 1,,,,30.0413,31.1931,Bureau
,Health Bureau - Boulaq El Dakrour 2,,,,30.0413,31.1931,Bureau
,Health Bureau - Dahab,,,,28.4852988,34.4945598,Bureau
,Health Bureau - Daqadous,,,,30.72437,31.263557,Bureau
,Health Bureau - Dar El Salam,,,,26.277703,32.052995,Bureau
,Health Bureau - Dar El Salam,,,,26.277703,32.052995,Bureau
,Health Bureau - Daraw,,,,24.4078511,32.9228282,Bureau
,Health Bureau - Dayrout 1,,,,27.5546709,30.8180318,Bureau
,Health Bureau - Dayrout 2,,,,27.5502358,30.8077635,Bureau
,Health Bureau - Deir Mawas 1,,,,27.644723,30.858006,Bureau
,Health Bureau - Deir Mawas 2,,,,27.644723,30.858006,Bureau
,Health Bureau - Dekernes,,,,31.0872435,31.6014218,Bureau
,Health Bureau - Derbala,,,,31.250863,29.984304,Bureau
,Health Bureau - Deshna,,,,,,Bureau
,Health Bureau - Desouq 1,,,,31.129182,30.6425053,Bureau
,Health Bureau - Desouq 2,,,,31.1305792,30.648827,Bureau
,Health Bureau - Deyarb Negm,,,,30.754016,31.443063,Bureau
,Health Bureau - Dokki,,,,30.0398,31.2133,Bureau
,Health Bureau - Edfou,,,,24.9797216,32.8788943,Bureau
,Health Bureau - Edkou 1,,,,31.3081543,30.2939469,Bureau
,Health Bureau - Edkou 2,,,,31.3081543,30.2939469,Bureau
,Health Bureau - El Abbasseya,,,,30.0670009,31.2808506,Bureau
,Health Bureau - El Agouza,,,,30.0473948,31.2712203,Bureau
,Health Bureau - El Alamain,,,,30.829077,28.956294,Bureau
,Health Bureau - El Amereya,,,,31.098853,29.771774,Bureau
,Health Bureau - El Arab,,,,31.254078,32.275047,Bureau
,Health Bureau - El Attarin,,,,31.198573,29.906014,Bureau
,Health Bureau - El Azbakeya,,,,30.0629332,31.2464422,Bureau
,Health Bureau - El Badary,,,,26.9915774,31.4155591,Bureau
,Health Bureau - El Bagour,,,,30.5658923,31.0032422,Bureau
,Health Bureau - El Balyana,,,,26.2331352,32.0023584,Bureau
,Health Bureau - El Barrad,,,,30.083695,31.245746,Bureau
,Health Bureau - El Dabaa,,,,31.0306747,28.4459424,Bureau
,Health Bureau - El Dakhla,,,,25.2743132,28.7958117,Bureau
,Health Bureau - El Darb El Ahmar,,,,30.039881,31.253806,Bureau
,Health Bureau - El Delengat 1,,,,30.8289431,30.5280445,Bureau
,Health Bureau - El Delengat 2,,,,30.8289431,30.5280445,Bureau
,Health Bureau - El Demerdash,,,,30.0736177,31.2759472,Bureau
,Health Bureau - El Emamain,,,,30.012781,31.258979,Bureau
,Health Bureau - El Ezzab,,,,30.088776,31.256629,Bureau
,Health Bureau - El Fardous,,,,31.0413252,31.3934527,Bureau
,Health Bureau - El Fashn,,,,,,Bureau
,Health Bureau - El Gamaleya,,,,30.0473948,31.2712203,Bureau
,Health Bureau - El Gamaleya,,,,30.0473948,31.2712203,Bureau
,Health Bureau - El Gezirah,,,,30.066124,31.24156,Bureau
,Health Bureau - El Ghanayem,,,,26.873385,31.325905,Bureau
,Health Bureau - El Gomhoureya,,,,31.179272,29.908578,Bureau
,Health Bureau - El Gomrok,,,,31.209732,29.881358,Bureau
,Health Bureau - El Goura,,,,31.1284932,34.1627812,Bureau
,Health Bureau - El Hadra,,,,31.201291,29.939336,Bureau
,Health Bureau - El Hammam,,,,30.8407423,29.3905467,Bureau
,Health Bureau - El Hamoul,,,,31.298287,31.138984,Bureau
,Health Bureau - El Hassana,,,,30.468229,33.7837422,Bureau
,Health Bureau - El Ibrahimeya,,,,31.2080973,29.9293535,Bureau
,Health Bureau - El Ibrahimeya,,,,31.2080973,29.9293535,Bureau
,Health Bureau - El Khalifa 1,,,,30.027216,31.255688,Bureau
,Health Bureau - El Khalifa 2,,,,30.027216,31.255688,Bureau
,Health Bureau - El Kharga,,,,25.4390388,30.5586043,Bureau
,Health Bureau - El Kuwait District,,,,31.2587199,32.2883409,Bureau
,Health Bureau - El Maasara El Balad,,,,29.9034955,31.2873413,Bureau
,"Health Bureau - El Mahalla El Kobra 1, 4",,,,30.9753485,31.1716649,Bureau
,Health Bureau - El Mahalla El Kobra 2,,,,30.9753485,31.1716649,Bureau
,Health Bureau - El Mahalla El Kobra 3,,,,30.9753485,31.1716649,Bureau
,Health Bureau - El Mahalla El Kobra 5,,,,30.9727379,31.1637282,Bureau
,Health Bureau - El Mahmoudeya 1,,,,,,Bureau
,Health Bureau - El Mahmoudeya 2,,,,31.1826862,30.5275619,Bureau
,Health Bureau - El Manakh,,,,31.268414,32.284794,Bureau
,Health Bureau - El Mandara,,,,31.2759275,30.0114566,Bureau
,Health Bureau - El Mansheya,,,,31.198472,29.891503,Bureau
,Health Bureau - El Mansoura 1,,,,31.044646,31.396273,Bureau
,Health Bureau - El Mansoura 2,,,,31.0470881,31.3765883,Bureau
,Health Bureau - El Mansoura 3,,,,30.052995,31.334808,Bureau
,Health Bureau - El Mansoura 4,,,,31.0470881,31.3765883,Bureau
,Health Bureau - El Manzalah,,,,,,Bureau
,Health Bureau - El Maragha,,,,26.6963055,31.6023606,Bureau
,Health Bureau - El Marg,,,,30.1485785,31.3420093,Bureau
,Health Bureau - El Matareya,,,,30.1253678,31.3181286,Bureau
,Health Bureau - El Matareya 1,,,,30.1253678,31.3181286,Bureau
,Health Bureau - El Matareya 2,,,,30.1254675,31.3219745,Bureau
,Health Bureau - El Menia 1,,,,28.0943761,30.7528567,Bureau
,Health Bureau - El Menia 2,,,,28.0943761,30.7528567,Bureau
,Health Bureau - El Menia 3,,,,28.0943761,30.7528567,Bureau
,Health Bureau - El Menshah,,,,26.4799918,31.797376,Bureau
,Health Bureau - El Moatamadeya,,,,30.0300892,31.1755583,Bureau
,Health Bureau - El Monib,,,,30.006631,31.206588,Bureau
,Health Bureau - El Monira,,,,30.076758,31.208258,Bureau
,Health Bureau - El Moqataah,,,,30.8950577,31.557852,Bureau
,Health Bureau - El Mothallath,,,,29.9858378,32.529037,Bureau
,Health Bureau - El Mousky,,,,30.0463,31.2541,Bureau
,Health Bureau - El Nawar,,,,30.1397099,31.3083208,Bureau
,Health Bureau - El Negila,,,,31.4049151,26.5891909,Bureau
,Health Bureau - El Nozha,,,,30.121817,31.372087,Bureau
,Health Bureau - El Nozha El Gadida,,,,30.121817,31.372087,Bureau
,Health Bureau - El Qabbary,,,,31.168293,29.875066,Bureau
,Health Bureau - El Qanater El Khaireya,,,,30.1762897,31.2067851,Bureau
,Health Bureau - El Qassasin,,,,,,Bureau
,Health Bureau - El Qobba 1,,,,30.0838487,31.2847427,Bureau
,Health Bureau - El Qobba 2,,,,30.0838487,31.2847427,Bureau
,Health Bureau - El Qoreen,,,,30.613788,31.7370236,Bureau
,Health Bureau - El Quseir,,,,26.115967,34.272609,Bureau
,Health Bureau - El Rahmaneya,,,,31.1032384,30.6376451,Bureau
,Health Bureau - El Riad,,,,31.2401028,30.9418723,Bureau
,Health Bureau - El Roghama,,,,31.255145,30.967006,Bureau
,Health Bureau - El Sabaa Banat,,,,30.587832,32.261909,Bureau
,Health Bureau - El Sadat,,,,29.984869,32.5395298,Bureau
,Health Bureau - El Saedeya,,,,30.3754768,32.2900703,Bureau
,Health Bureau - El Safa,,,,29.3682255,32.174605,Bureau
,Health Bureau - El Salam 1,,,,30.1581027,31.4132339,Bureau
,Health Bureau - El Salam 2,,,,29.9932522,31.2119442,Bureau
,Health Bureau - El Salam District,,,,30.5978164,32.268461,Bureau
,Health Bureau - El Salloum,,,,31.5611584,25.1590884,Bureau
,Health Bureau - El Santa 1,,,,30.7279591,31.1214405,Bureau
,Health Bureau - El Santa 2,,,,30.7279591,31.1214405,Bureau
,Health Bureau - El Sayda Zeinab 2,,,,30.0318525,31.2473902,Bureau
,Health Bureau - El Sayeda Zeinab 1,,,,30.0318525,31.2473902,Bureau
,Health Bureau - El Sayeda Zeinab 3,,,,30.034394,31.237909,Bureau
,Health Bureau - El Senbelawain,,,,30.8805955,31.4602062,Bureau
,Health Bureau - El Seyouf,,,,31.230527,29.972501,Bureau
,Health Bureau - El Sharabeya,,,,30.072097,31.261795,Bureau
,Health Bureau - El Sheikh Zayed,,,,30.6063825,32.2924662,Bureau
,Health Bureau - El Sheikh Zowaid,,,,31.2117921,34.1104138,Bureau
,Health Bureau - El Sherouk City,,,,,,Bureau
,Health Bureau - El Tahrir,,,,30.5916318,32.2692454,Bureau
,Health Bureau - El Tal El Kabir,,,,30.5608382,31.7834634,Bureau
,Health Bureau - El Tebeen 1,,,,29.7816181,31.3026883,Bureau
,Health Bureau - El Waily El Kabir,,,,30.0629332,31.2464422,Bureau
,Health Bureau - El Waqf,,,,26.092462,32.4254051,Bureau
,Health Bureau - El Wardeyan,,,,31.1644252,29.8688475,Bureau
,Health Bureau - El Wasta,,,,29.343125,31.204121,Bureau
,Health Bureau - El Zagazig 2,,,,30.592752,31.5084914,Bureau
,Health Bureau - El Zagazig 3,,,,30.5760494,31.4863169,Bureau
,Health Bureau - El Zaher,,,,30.0669167,31.2622002,Bureau
,Health Bureau - El Zahraa,,,,30.1365912,31.3503456,Bureau
,Health Bureau - El Zaitoun 2,,,,30.106957,31.308684,Bureau
,Health Bureau - El Zaitoun1,,,,30.106957,31.308684,Bureau
,Health Bureau - El Zarqa,,,,31.2050155,31.6351801,Bureau
,Health Bureau - El Zawya 2,,,,30.1016,31.2775,Bureau
,Health Bureau - El Zawya 3,,,,30.1016,31.2775,Bureau
,Health Bureau - El Zawya El Qadima,,,,30.092667,31.271599,Bureau
,Health Bureau - Esna,,,,25.6934787,32.6500248,Bureau
,Health Bureau - Etay El Baroud,,,,30.8852615,30.6653041,Bureau
,Health Bureau - Etsa,,,,29.2378946,30.7913458,Bureau
,Health Bureau - Fanara,,,,30.2764878,32.3478109,Bureau
,Health Bureau - Faqous,,,,30.5401907,31.6967942,Bureau
,Health Bureau - Farshout,,,,26.0338322,32.1632516,Bureau
,Health Bureau - Fawah,,,,,,Bureau
,Health Bureau - Fleming,,,,31.2414263,29.969073,Bureau
,Health Bureau - Gehaina,,,,26.6690517,31.5020889,Bureau
,Health Bureau - Gerga,,,,31.2112772,29.9268459,Bureau
,Health Bureau - Ghait El Enab,,,,31.179272,29.908578,Bureau
,Health Bureau - Ghorbal,,,,31.186664,29.904361,Bureau
,Health Bureau - Giza 1,,,,30.016541,31.215189,Bureau
,Health Bureau - Giza 2,,,,30.0961895,31.2457998,Bureau
,Health Bureau - Giza 4,,,,30.010367,31.211819,Bureau
,Health Bureau - Godayla,,,,31.0456693,31.3694089,Bureau
,Health Bureau - Hadaeq Shoubra,,,,30.0629332,31.2464422,Bureau
,Health Bureau - Hagar El Nawateya,,,,31.2200134,29.9898219,Bureau
,Health Bureau - Haram,,,,29.993357,31.160473,Bureau
,Health Bureau - Heliopolis,,,,30.095,31.3258,Bureau
,Health Bureau - Helwan 1,,,,29.8456316,31.3329545,Bureau
,Health Bureau - Helwan 2,,,,29.840575,31.319304,Bureau
,Health Bureau - Housh Eissa 1,,,,30.9098468,30.2952021,Bureau
,Health Bureau - Housh Eissa 2,,,,30.9098468,30.2952021,Bureau
,Health Bureau - Hurghada,,,,27.261116,33.818778,Bureau
,Health Bureau - Ibshway,,,,29.3565049,30.6795359,Bureau
,Health Bureau - Ihnasya,,,,29.0907493,30.9405936,Bureau
,Health Bureau - Imbaba 1,,,,30.068948,31.2120471,Bureau
,Health Bureau - Imbaba 2,,,,30.0889622,31.2102759,Bureau
,Health Bureau - Kafr El Dawar 1,,,,31.1286098,30.6427628,Bureau
,Health Bureau - Kafr El Dawar 2,,,,31.1335305,30.1291519,Bureau
,Health Bureau - Kafr El Dawar 3,,,,31.1335305,30.1291519,Bureau
,Health Bureau - Kafr El Pasha,,,,30.1530617,31.3772026,Bureau
,Health Bureau - Kafr El Sheikh 1,,,,31.112112,30.938014,Bureau
,Health Bureau - Kafr El Sheikh 2,,,,31.112112,30.938014,Bureau
,Health Bureau - Kafr El Zayyat 1,,,,30.826579,30.818141,Bureau
,Health Bureau - Kafr El Zayyat 2,,,,30.826579,30.818141,Bureau
,Health Bureau - Kafr Saad,,,,31.355766,31.687171,Bureau
,Health Bureau - Kafr Saqr,,,,30.7948201,31.6289306,Bureau
,Health Bureau - Karmouz,,,,31.179272,29.908578,Bureau
,Health Bureau - Kasfareet,,,,30.2585251,32.3972064,Bureau
,Health Bureau - Koum El Nour,,,,30.7292479,31.2994266,Bureau
,Health Bureau - Koum Hamada,,,,30.5708404,30.7117074,Bureau
,Health Bureau - Koum Ombo,,,,24.482614,32.947953,Bureau
,Health Bureau - Luxor 1,,,,30.131102,31.3497637,Bureau
,Health Bureau - Luxor 2,,,,25.6353921,32.5935544,Bureau
,Health Bureau - Maadi,,,,29.9675207,31.2584768,Bureau
,Health Bureau - Madinet El Nour,,,,30.000733,31.158054,Bureau
,Health Bureau - Madinet El Omal,,,,30.080258,31.218252,Bureau
,Health Bureau - Maghagha 1,,,,28.647288,30.842649,Bureau
,Health Bureau - Maghagha 2,,,,28.655357,30.831969,Bureau
,Health Bureau - Maghagha 3,,,,30.052995,31.334808,Bureau
,Health Bureau - Mallawy 1,,,,27.7771105,30.7987217,Bureau
,Health Bureau - Mallawy 2,,,,27.729531,30.831739,Bureau
,Health Bureau - Mallawy 3,,,,27.7788099,30.7809676,Bureau
,Health Bureau - Mallawy 4,,,,27.729531,30.831739,Bureau
,Health Bureau - Manial,,,,30.0221581,31.2271554,Bureau
,Health Bureau - Markaz Banisuef,,,,29.071028,31.102789,Bureau
,Health Bureau - Markaz Damanhour,,,,31.049285,30.465034,Bureau
,Health Bureau - Marsa Alam,,,,25.0652667,33.8997595,Bureau
,Health Bureau - Marsa Matrouh 1,,,,31.3262657,27.2680718,Bureau
,Health Bureau - Marsa Matrouh 2,,,,31.3262657,27.2680718,Bureau
,Health Bureau - Mashtoul El Souk,,,,30.3591656,31.3818991,Bureau
,Health Bureau - Matay 1,,,,28.4217781,30.7902843,Bureau
,Health Bureau - Matay 2,,,,28.4217781,30.7902843,Bureau
,Health Bureau - Meet Ghamr,,,,30.715914,31.255443,Bureau
,Health Bureau - Meet Salsil,,,,31.1672733,31.8012018,Bureau
,Health Bureau - Menia El Qamh,,,,30.5188275,31.3460524,Bureau
,Health Bureau - Meniet El Nasr,,,,31.125451,31.644908,Bureau
,Health Bureau - Meniet El Sirg,,,,30.0865389,31.253721,Bureau
,Health Bureau - Metoubas,,,,31.3959153,30.5509358,Bureau
,Health Bureau - Mina El Basal,,,,31.1644252,29.8688475,Bureau
,Health Bureau - Misr El Qadima 1,,,,30.018888,31.230541,Bureau
,Health Bureau - Misr El Qadima 2,,,,30.0187561,31.2311355,Bureau
,Health Bureau - Moharram Bey,,,,31.197697,29.916383,Bureau
,Health Bureau - Monouf,,,,30.4646318,30.9276992,Bureau
,Health Bureau - Nabarouh,,,,,,Bureau
,Health Bureau - Nagaa Hamady,,,,26.056023,32.241188,Bureau
,Health Bureau - Naqada,,,,25.901952,32.727433,Bureau
,Health Bureau - Nasr City 1,,,,30.067693,31.323674,Bureau
,Health Bureau - Nasr City 2,,,,30.052995,31.334808,Bureau
,Health Bureau - Nasr El Nouba,,,,24.543114,33.033051,Bureau
,Health Bureau - Nasser,,,,29.1444778,31.1325717,Bureau
,Health Bureau - New Maadi,,,,29.9675207,31.2584768,Bureau
,Health Bureau - Nuweibaa,,,,29.0335227,34.6597302,Bureau
,Health Bureau - Port Fouad,,,,31.251803,32.316636,Bureau
,Health Bureau - Port Said,,,,31.259615,32.296199,Bureau
,Health Bureau - Qaha,,,,30.2816,31.2035,Bureau
,Health Bureau - Qalioub El Balad,,,,30.175945,31.209233,Bureau
,Health Bureau - Qalioub El Mahatta,,,,30.177962,31.221631,Bureau
,Health Bureau - Qasr El Nil,,,,30.034394,31.237909,Bureau
,Health Bureau - Qeft,,,,26.0007014,32.8127436,Bureau
,Health Bureau - Qellin,,,,31.0466258,30.8545295,Bureau
,Health Bureau - Qena,,,,26.156304,32.709678,Bureau
,Health Bureau - Qotour,,,,30.9677661,30.9549022,Bureau
,Health Bureau - Qous,,,,25.9119375,32.7632609,Bureau
,Health Bureau - Raas Ghareb,,,,28.3606649,33.0765842,Bureau
,Health Bureau - Raas Sedr,,,,29.589282,32.7115741,Bureau
,Health Bureau - Rashid 1,,,,31.404203,30.423089,Bureau
,Health Bureau - Rashid 2,,,,31.404203,30.423089,Bureau
,Health Bureau - Road El Farag 1,,,,30.0629332,31.2464422,Bureau
,Health Bureau - Road El Farag 2,,,,30.0629332,31.2464422,Bureau
,Health Bureau - Road El Farag El Balad,,,,30.0629332,31.2464422,Bureau
,Health Bureau - Safaga,,,,26.763298,33.941645,Bureau
,Health Bureau - Sahel Selim,,,,27.063626,31.345397,Bureau
,Health Bureau - Saint Catherine,,,,28.5598284,33.9458844,Bureau
,Health Bureau - Samalout 1,,,,28.3110872,30.7136536,Bureau
,Health Bureau - Samalout 2,,,,28.3110872,30.7136536,Bureau
,Health Bureau - Samalout 3,,,,28.3110872,30.7136536,Bureau
,Health Bureau - Samannoud,,,,30.1270587,31.3481125,Bureau
,Health Bureau - Sandoub,,,,31.0176811,31.3880172,Bureau
,Health Bureau - Sarabioum,,,,30.4756081,32.3178479,Bureau
,Health Bureau - Saray El Qobba,,,,30.0988464,31.3064539,Bureau
,Health Bureau - Sedfa,,,,26.964516,31.377897,Bureau
,Health Bureau - Semouha,,,,31.2071389,29.9383044,Bureau
,Health Bureau - Sharm El Sheikh,,,,27.8639058,34.2917526,Bureau
,Health Bureau - Shebin El Koum,,,,30.5529345,31.0042943,Bureau
,Health Bureau - Shebin El Qanater 1,,,,30.318651,31.309024,Bureau
,Health Bureau - Shebin El Qanater 2,,,,30.318651,31.309024,Bureau
,Health Bureau - Sherbin,,,,31.1880065,31.5288567,Bureau
,Health Bureau - Sherif,,,,30.0961895,31.2457998,Bureau
,Health Bureau - Shoubra El Khaima 1,,,,30.1087,31.2501,Bureau
,Health Bureau - Shoubra El Khaima 2,,,,30.1087,31.2501,Bureau
,Health Bureau - Shoubra El Khaima 3,,,,30.118044,31.263165,Bureau
,Health Bureau - Shoubra El Khaima 4,,,,30.120793,31.258866,Bureau
,Health Bureau - Shoubra Sendy,,,,30.8720755,31.5408146,Bureau
,Health Bureau - Shoubrakhit,,,,31.0316784,30.7176206,Bureau
,Health Bureau - Sidi Barrany,,,,31.6058924,25.9344131,Bureau
,Health Bureau - Sidi Beshr,,,,31.2612692,29.991859,Bureau
,Health Bureau - Sidi Gaber,,,,31.225183,29.946734,Bureau
,Health Bureau - Sidi Salem,,,,31.268115,30.786137,Bureau
,Health Bureau - Sinnouras,,,,29.408465,30.859456,Bureau
,Health Bureau - Siwa,,,,,,Bureau
,Health Bureau - Sohag 1,,,,26.5458442,31.7014039,Bureau
,Health Bureau - Sohag 2,,,,26.5592227,31.695159,Bureau
,Health Bureau - Sohag 3,,,,26.5592227,31.695159,Bureau
,Health Bureau - Sohag 4,,,,26.5592227,31.695159,Bureau
,Health Bureau - Somosta,,,,,,Bureau
,Health Bureau - Soqolta,,,,26.6588765,31.6666746,Bureau
,Health Bureau - South Ismaileya,,,,30.5916318,32.2692454,Bureau
,Health Bureau - Suez,,,,29.9631005,32.5587505,Bureau
,Health Bureau - Taba,,,,29.493174,34.897201,Bureau
,Health Bureau - Tahta,,,,26.8461317,31.4753267,Bureau
,Health Bureau - Tala,,,,30.6843197,30.9504122,Bureau
,Health Bureau - Talkha 1,,,,31.050702,31.381091,Bureau
,Health Bureau - Talkha 2,,,,31.0500295,31.3726884,Bureau
,Health Bureau - Tama 1,,,,29.4779861,30.961645,Bureau
,Health Bureau - Tameya,,,,29.4779861,30.961645,Bureau
,Health Bureau - Tanta 1,,,,30.8011814,30.999517,Bureau
,Health Bureau - Tanta 2,,,,30.780746,31.0021466,Bureau
,Health Bureau - Tanta 3,,,,30.8011814,30.999517,Bureau
,Health Bureau - Tanta 4,,,,30.780746,31.0021466,Bureau
,Health Bureau - Tanta 5,,,,30.7947233,31.0164857,Bureau
,Health Bureau - Tanta 6,,,,30.7782641,30.9841651,Bureau
,Health Bureau - Tema 2,,,,26.905991,31.432133,Bureau
,Health Bureau - Toril,,,,31.0572874,31.4012154,Bureau
,Health Bureau - Toukh,,,,30.3536522,31.2016985,Bureau
,Health Bureau - Wadi El Natroun,,,,,,Bureau
,Health Bureau - West El Basateen,,,,29.985429,31.268083,Bureau
,Health Bureau - Zeinhom,,,,30.036901,31.254856,Bureau
